{
  "Permissions": [
    {
      "Code": "DASHBOARD",
      "NameEn": "Dashboard",
      "NameFa": "داشبورد",
      "Description": "دسترسی به داشبورد اصلی سیستم",
      "Icon": "fa fa-tachometer-alt",
      "Color": "#007bff",
      "ParentCode": null,
      "DisplayOrder": 1,
      "IsSystemPermission": true
    },
    {
      "Code": "DASHBOARD.VIEW",
      "NameEn": "View Dashboard",
      "NameFa": "مشاهده داشبورد",
      "Description": "مشاهده صفحه داشبورد اصلی",
      "Icon": "fa fa-eye",
      "Color": "#17a2b8",
      "ParentCode": "DASHBOARD",
      "DisplayOrder": 1,
      "IsSystemPermission": true
    },

    {
      "Code": "TASK",
      "NameEn": "Task Management",
      "NameFa": "مدیریت تسک‌ها",
      "Description": "دسترسی به سیستم مدیریت تسک‌ها",
      "Icon": "fa fa-tasks",
      "Color": "#007bff",
      "ParentCode": null,
      "DisplayOrder": 2,
      "IsSystemPermission": true
    },
    {
      "Code": "TASK.OPERATIONS",
      "NameEn": "Task Operations",
      "NameFa": "عملیات تسک‌ها",
      "Description": "دسترسی به عملیات اصلی تسک‌ها",
      "Icon": "fa fa-cog",
      "Color": "#6c757d",
      "ParentCode": "TASK",
      "DisplayOrder": 1,
      "IsSystemPermission": true
    },
    {
      "Code": "TASK.OPERATIONS.CREATE",
      "NameEn": "Create Task",
      "NameFa": "ایجاد تسک جدید",
      "Description": "ایجاد تسک جدید در سیستم",
      "Icon": "fa fa-plus-circle",
      "Color": "#28a745",
      "ParentCode": "TASK.OPERATIONS",
      "DisplayOrder": 1,
      "IsSystemPermission": true
    },
    {
      "Code": "TASK.OPERATIONS.VIEW",
      "NameEn": "View All Tasks",
      "NameFa": "مشاهده همه تسک‌ها",
      "Description": "مشاهده لیست همه تسک‌ها",
      "Icon": "fa fa-list",
      "Color": "#17a2b8",
      "ParentCode": "TASK.OPERATIONS",
      "DisplayOrder": 2,
      "IsSystemPermission": true
    },
    {
      "Code": "TASK.OPERATIONS.EDIT",
      "NameEn": "Edit Task",
      "NameFa": "ویرایش تسک",
      "Description": "ویرایش اطلاعات تسک",
      "Icon": "fa fa-edit",
      "Color": "#ffc107",
      "ParentCode": "TASK.OPERATIONS",
      "DisplayOrder": 3,
      "IsSystemPermission": true
    },
    {
      "Code": "TASK.OPERATIONS.DELETE",
      "NameEn": "Delete Task",
      "NameFa": "حذف تسک",
      "Description": "حذف تسک از سیستم",
      "Icon": "fa fa-trash",
      "Color": "#dc3545",
      "ParentCode": "TASK.OPERATIONS",
      "DisplayOrder": 4,
      "IsSystemPermission": true
    },
    {
      "Code": "TASK.OPERATIONS.ASSIGN",
      "NameEn": "Assign Task",
      "NameFa": "تخصیص تسک",
      "Description": "تخصیص تسک به کاربران و تیم‌ها",
      "Icon": "fa fa-user-plus",
      "Color": "#6610f2",
      "ParentCode": "TASK.OPERATIONS",
      "DisplayOrder": 5,
      "IsSystemPermission": true
    },
    {
      "Code": "TASK.OPERATIONS.COMPLETE",
      "NameEn": "Complete Task",
      "NameFa": "تکمیل تسک",
      "Description": "علامت‌گذاری تسک به عنوان تکمیل شده",
      "Icon": "fa fa-check-circle",
      "Color": "#28a745",
      "ParentCode": "TASK.OPERATIONS",
      "DisplayOrder": 6,
      "IsSystemPermission": true
    },
    {
      "Code": "TASK.OPERATIONS.CALENDAR",
      "NameEn": "Task Calendar",
      "NameFa": "تقویم تسک‌ها",
      "Description": "مشاهده تقویم تسک‌ها",
      "Icon": "fa fa-calendar",
      "Color": "#28a745",
      "ParentCode": "TASK.OPERATIONS",
      "DisplayOrder": 7,
      "IsSystemPermission": true
    },
    {
      "Code": "TASK.DASHBOARD",
      "NameEn": "Task Dashboard",
      "NameFa": "داشبورد تسک‌ها",
      "Description": "دسترسی به داشبورد و آمار تسک‌ها",
      "Icon": "fa fa-chart-bar",
      "Color": "#007bff",
      "ParentCode": "TASK",
      "DisplayOrder": 2,
      "IsSystemPermission": true
    },
    {
      "Code": "TASK.MYDAY",
      "NameEn": "My Day Tasks",
      "NameFa": "تسک‌های روز من",
      "Description": "دسترسی به صفحه تسک‌های روز من",
      "Icon": "fa fa-calendar-day",
      "Color": "#28a745",
      "ParentCode": "TASK",
      "DisplayOrder": 3,
      "IsSystemPermission": true
    },
    {
      "Code": "TASK.REMINDERS",
      "NameEn": "Task Reminders",
      "NameFa": "یادآوری‌های تسک",
      "Description": "مدیریت یادآوری‌های تسک",
      "Icon": "fa fa-bell",
      "Color": "#fd7e14",
      "ParentCode": "TASK",
      "DisplayOrder": 4,
      "IsSystemPermission": true
    },

    {
      "Code": "CORE",
      "NameEn": "Core System",
      "NameFa": "سیستم اصلی",
      "Description": "دسترسی به ماژول‌های اصلی سیستم",
      "Icon": "fa fa-cogs",
      "Color": "#6c757d",
      "ParentCode": null,
      "DisplayOrder": 3,
      "IsSystemPermission": true
    },
    {
      "Code": "CORE.NOTIFICATION",
      "NameEn": "Notifications",
      "NameFa": "نوتیفیکیشن‌ها",
      "Description": "مدیریت نوتیفیکیشن‌ها",
      "Icon": "fa fa-bell",
      "Color": "#ffc107",
      "ParentCode": "CORE",
      "DisplayOrder": 1,
      "IsSystemPermission": true
    },
    {
      "Code": "CORE.NOTIFICATION.VIEW",
      "NameEn": "View Notifications",
      "NameFa": "مشاهده نوتیفیکیشن‌ها",
      "Description": "مشاهده نوتیفیکیشن‌های شخصی",
      "Icon": "fa fa-eye",
      "Color": "#17a2b8",
      "ParentCode": "CORE.NOTIFICATION",
      "DisplayOrder": 1,
      "IsSystemPermission": true
    },
    {
      "Code": "CORE.NOTIFICATION.MANAGE",
      "NameEn": "Manage Notifications",
      "NameFa": "مدیریت نوتیفیکیشن‌ها",
      "Description": "مدیریت کامل نوتیفیکیشن‌ها",
      "Icon": "fa fa-cog",
      "Color": "#6c757d",
      "ParentCode": "CORE.NOTIFICATION",
      "DisplayOrder": 2,
      "IsSystemPermission": true
    },

    {
      "Code": "CORE.BRANCH",
      "NameEn": "Branch Management",
      "NameFa": "مدیریت شعب",
      "Description": "مدیریت شعب سازمان",
      "Icon": "fa fa-sitemap",
      "Color": "#007bff",
      "ParentCode": "CORE",
      "DisplayOrder": 2,
      "IsSystemPermission": true
    },
    {
      "Code": "CORE.BRANCH.DEFINITIONS",
      "NameEn": "Branch Definitions",
      "NameFa": "تعاریف شعب",
      "Description": "تعریف و مدیریت شعب",
      "Icon": "fa fa-cog",
      "Color": "#6c757d",
      "ParentCode": "CORE.BRANCH",
      "DisplayOrder": 1,
      "IsSystemPermission": true
    },
    {
      "Code": "CORE.BRANCH.DEFINITIONS.LIST",
      "NameEn": "Branch List",
      "NameFa": "لیست شعب",
      "Description": "مشاهده لیست شعب",
      "Icon": "fa fa-list",
      "Color": "#17a2b8",
      "ParentCode": "CORE.BRANCH.DEFINITIONS",
      "DisplayOrder": 1,
      "IsSystemPermission": true
    },
    {
      "Code": "CORE.BRANCH.DEFINITIONS.CREATE",
      "NameEn": "Create Branch",
      "NameFa": "افزودن شعبه",
      "Description": "افزودن شعبه جدید",
      "Icon": "fa fa-plus-circle",
      "Color": "#28a745",
      "ParentCode": "CORE.BRANCH.DEFINITIONS",
      "DisplayOrder": 2,
      "IsSystemPermission": true
    },
    {
      "Code": "CORE.BRANCH.DEFINITIONS.EDIT",
      "NameEn": "Edit Branch",
      "NameFa": "ویرایش شعبه",
      "Description": "ویرایش اطلاعات شعبه",
      "Icon": "fa fa-edit",
      "Color": "#ffc107",
      "ParentCode": "CORE.BRANCH.DEFINITIONS",
      "DisplayOrder": 3,
      "IsSystemPermission": true
    },
    {
      "Code": "CORE.BRANCH.DEFINITIONS.DELETE",
      "NameEn": "Delete Branch",
      "NameFa": "حذف شعبه",
      "Description": "حذف شعبه از سیستم",
      "Icon": "fa fa-trash",
      "Color": "#dc3545",
      "ParentCode": "CORE.BRANCH.DEFINITIONS",
      "DisplayOrder": 4,
      "IsSystemPermission": true
    },
    {
      "Code": "CORE.BRANCH.DEFINITIONS.USER",
      "NameEn": "Branch Users",
      "NameFa": "کاربران شعب",
      "Description": "مدیریت کاربران شعب",
      "Icon": "fa fa-users",
      "Color": "#6610f2",
      "ParentCode": "CORE.BRANCH.DEFINITIONS",
      "DisplayOrder": 5,
      "IsSystemPermission": true
    },

    {
      "Code": "CORE.TEAM",
      "NameEn": "Team Management",
      "NameFa": "مدیریت تیم‌ها",
      "Description": "مدیریت تیم‌ها و ساختار سازمانی",
      "Icon": "fa fa-users",
      "Color": "#17a2b8",
      "ParentCode": "CORE",
      "DisplayOrder": 3,
      "IsSystemPermission": true
    },
    {
      "Code": "CORE.TEAM.VIEW",
      "NameEn": "View Teams",
      "NameFa": "مشاهده تیم‌ها",
      "Description": "مشاهده چارت سازمانی و تیم‌ها",
      "Icon": "fa fa-sitemap",
      "Color": "#17a2b8",
      "ParentCode": "CORE.TEAM",
      "DisplayOrder": 1,
      "IsSystemPermission": true
    },
    {
      "Code": "CORE.TEAM.CREATE",
      "NameEn": "Create Team",
      "NameFa": "ایجاد تیم",
      "Description": "ایجاد تیم جدید",
      "Icon": "fa fa-plus-circle",
      "Color": "#28a745",
      "ParentCode": "CORE.TEAM",
      "DisplayOrder": 2,
      "IsSystemPermission": true
    },
    {
      "Code": "CORE.TEAM.EDIT",
      "NameEn": "Edit Team",
      "NameFa": "ویرایش تیم",
      "Description": "ویرایش اطلاعات تیم",
      "Icon": "fa fa-edit",
      "Color": "#ffc107",
      "ParentCode": "CORE.TEAM",
      "DisplayOrder": 3,
      "IsSystemPermission": true
    },
    {
      "Code": "CORE.TEAM.DELETE",
      "NameEn": "Delete Team",
      "NameFa": "حذف تیم",
      "Description": "حذف تیم از سیستم",
      "Icon": "fa fa-trash",
      "Color": "#dc3545",
      "ParentCode": "CORE.TEAM",
      "DisplayOrder": 4,
      "IsSystemPermission": true
    },
    {
      "Code": "CORE.TEAM.MEMBERS",
      "NameEn": "Manage Team Members",
      "NameFa": "مدیریت اعضای تیم",
      "Description": "مدیریت اعضا و سمت‌های تیم",
      "Icon": "fa fa-user-friends",
      "Color": "#6610f2",
      "ParentCode": "CORE.TEAM",
      "DisplayOrder": 5,
      "IsSystemPermission": true
    },

    {
      "Code": "CORE.USER",
      "NameEn": "User Management",
      "NameFa": "مدیریت کاربران",
      "Description": "مدیریت کاربران سیستم",
      "Icon": "fa fa-user-friends",
      "Color": "#28a745",
      "ParentCode": "CORE",
      "DisplayOrder": 4,
      "IsSystemPermission": true
    },
    {
      "Code": "CORE.USER.VIEW",
      "NameEn": "View Users",
      "NameFa": "مشاهده کاربران",
      "Description": "مشاهده لیست کاربران",
      "Icon": "fa fa-eye",
      "Color": "#17a2b8",
      "ParentCode": "CORE.USER",
      "DisplayOrder": 1,
      "IsSystemPermission": true
    },
    {
      "Code": "CORE.USER.VIEW.ADMINS",
      "NameEn": "View Admins",
      "NameFa": "مشاهده مدیران سیستم",
      "Description": "مشاهده لیست مدیران سیستم",
      "Icon": "fa fa-user-shield",
      "Color": "#007bff",
      "ParentCode": "CORE.USER.VIEW",
      "DisplayOrder": 1,
      "IsSystemPermission": true
    },
    {
      "Code": "CORE.USER.VIEW.USERS",
      "NameEn": "View Regular Users",
      "NameFa": "مشاهده کاربران عادی",
      "Description": "مشاهده لیست کاربران عادی",
      "Icon": "fa fa-users",
      "Color": "#28a745",
      "ParentCode": "CORE.USER.VIEW",
      "DisplayOrder": 2,
      "IsSystemPermission": true
    },
    {
      "Code": "CORE.USER.CREATE",
      "NameEn": "Create User",
      "NameFa": "افزودن کاربر",
      "Description": "افزودن کاربر جدید",
      "Icon": "fa fa-user-plus",
      "Color": "#28a745",
      "ParentCode": "CORE.USER",
      "DisplayOrder": 2,
      "IsSystemPermission": true
    },
    {
      "Code": "CORE.USER.EDIT",
      "NameEn": "Edit User",
      "NameFa": "ویرایش کاربر",
      "Description": "ویرایش اطلاعات کاربر",
      "Icon": "fa fa-user-edit",
      "Color": "#ffc107",
      "ParentCode": "CORE.USER",
      "DisplayOrder": 3,
      "IsSystemPermission": true
    },
    {
      "Code": "CORE.USER.DELETE",
      "NameEn": "Delete User",
      "NameFa": "حذف کاربر",
      "Description": "حذف کاربر از سیستم",
      "Icon": "fa fa-user-times",
      "Color": "#dc3545",
      "ParentCode": "CORE.USER",
      "DisplayOrder": 4,
      "IsSystemPermission": true
    },
    {
      "Code": "CORE.USER.PERMISSION",
      "NameEn": "User Permissions",
      "NameFa": "دسترسی کاربران",
      "Description": "مدیریت دسترسی‌های کاربران",
      "Icon": "fa fa-users-cog",
      "Color": "#17a2b8",
      "ParentCode": "CORE.USER",
      "DisplayOrder": 5,
      "IsSystemPermission": true
    },

    {
      "Code": "CORE.PERMISSION",
      "NameEn": "Permission Management",
      "NameFa": "مدیریت دسترسی‌ها",
      "Description": "مدیریت دسترسی‌های سیستم",
      "Icon": "fa fa-shield-alt",
      "Color": "#ffc107",
      "ParentCode": "CORE",
      "DisplayOrder": 5,
      "IsSystemPermission": true
    },
    {
      "Code": "CORE.PERMISSION.VIEW",
      "NameEn": "View Permissions",
      "NameFa": "مشاهده دسترسی‌ها",
      "Description": "مشاهده لیست و درخت دسترسی‌ها",
      "Icon": "fa fa-eye",
      "Color": "#17a2b8",
      "ParentCode": "CORE.PERMISSION",
      "DisplayOrder": 1,
      "IsSystemPermission": true
    },
    {
      "Code": "CORE.PERMISSION.CREATE",
      "NameEn": "Create Permission",
      "NameFa": "ایجاد دسترسی",
      "Description": "ایجاد دسترسی جدید",
      "Icon": "fa fa-plus-circle",
      "Color": "#28a745",
      "ParentCode": "CORE.PERMISSION",
      "DisplayOrder": 2,
      "IsSystemPermission": true
    },
    {
      "Code": "CORE.PERMISSION.EDIT",
      "NameEn": "Edit Permission",
      "NameFa": "ویرایش دسترسی",
      "Description": "ویرایش دسترسی موجود",
      "Icon": "fa fa-edit",
      "Color": "#ffc107",
      "ParentCode": "CORE.PERMISSION",
      "DisplayOrder": 3,
      "IsSystemPermission": true
    },
    {
      "Code": "CORE.PERMISSION.DELETE",
      "NameEn": "Delete Permission",
      "NameFa": "حذف دسترسی",
      "Description": "حذف دسترسی از سیستم",
      "Icon": "fa fa-trash",
      "Color": "#dc3545",
      "ParentCode": "CORE.PERMISSION",
      "DisplayOrder": 4,
      "IsSystemPermission": true
    },
    {
      "Code": "CORE.PERMISSION.LOG",
      "NameEn": "Permission Logs",
      "NameFa": "لاگ دسترسی‌ها",
      "Description": "مشاهده لاگ تغییرات دسترسی‌ها",
      "Icon": "fa fa-clipboard-list",
      "Color": "#6c757d",
      "ParentCode": "CORE.PERMISSION",
      "DisplayOrder": 5,
      "IsSystemPermission": true
    },

    {
      "Code": "CORE.ROLE",
      "NameEn": "Role Management",
      "NameFa": "مدیریت نقش‌ها",
      "Description": "مدیریت نقش‌های کاربری",
      "Icon": "fa fa-user-shield",
      "Color": "#28a745",
      "ParentCode": "CORE",
      "DisplayOrder": 6,
      "IsSystemPermission": true
    },
    {
      "Code": "CORE.ROLE.VIEW",
      "NameEn": "View Roles",
      "NameFa": "مشاهده نقش‌ها",
      "Description": "مشاهده لیست نقش‌ها",
      "Icon": "fa fa-eye",
      "Color": "#17a2b8",
      "ParentCode": "CORE.ROLE",
      "DisplayOrder": 1,
      "IsSystemPermission": true
    },
    {
      "Code": "CORE.ROLE.CREATE",
      "NameEn": "Create Role",
      "NameFa": "ایجاد نقش",
      "Description": "ایجاد نقش جدید",
      "Icon": "fa fa-plus-circle",
      "Color": "#28a745",
      "ParentCode": "CORE.ROLE",
      "DisplayOrder": 2,
      "IsSystemPermission": true
    },
    {
      "Code": "CORE.ROLE.EDIT",
      "NameEn": "Edit Role",
      "NameFa": "ویرایش نقش",
      "Description": "ویرایش نقش موجود",
      "Icon": "fa fa-edit",
      "Color": "#ffc107",
      "ParentCode": "CORE.ROLE",
      "DisplayOrder": 3,
      "IsSystemPermission": true
    },
    {
      "Code": "CORE.ROLE.DELETE",
      "NameEn": "Delete Role",
      "NameFa": "حذف نقش",
      "Description": "حذف نقش از سیستم",
      "Icon": "fa fa-trash",
      "Color": "#dc3545",
      "ParentCode": "CORE.ROLE",
      "DisplayOrder": 4,
      "IsSystemPermission": true
    },
    {
      "Code": "CORE.ROLE.ASSIGN",
      "NameEn": "Assign Role Permissions",
      "NameFa": "تخصیص دسترسی به نقش",
      "Description": "تخصیص دسترسی‌ها به نقش",
      "Icon": "fa fa-link",
      "Color": "#6610f2",
      "ParentCode": "CORE.ROLE",
      "DisplayOrder": 5,
      "IsSystemPermission": true
    },

    {
      "Code": "CORE.TASKCATEGORY",
      "NameEn": "Task Category Management",
      "NameFa": "مدیریت دسته‌بندی تسک‌ها",
      "Description": "مدیریت دسته‌بندی‌های تسک",
      "Icon": "fa fa-tags",
      "Color": "#6c757d",
      "ParentCode": "CORE",
      "DisplayOrder": 7,
      "IsSystemPermission": true
    },
    {
      "Code": "CORE.TASKCATEGORY.GLOBAL",
      "NameEn": "Global Task Categories",
      "NameFa": "دسته‌بندی‌های عمومی",
      "Description": "مدیریت دسته‌بندی‌های عمومی تسک",
      "Icon": "fa fa-globe",
      "Color": "#007bff",
      "ParentCode": "CORE.TASKCATEGORY",
      "DisplayOrder": 1,
      "IsSystemPermission": true
    },
    {
      "Code": "CORE.TASKCATEGORY.BRANCH",
      "NameEn": "Branch Task Categories",
      "NameFa": "دسته‌بندی‌های شعب",
      "Description": "مدیریت دسته‌بندی‌های شعب",
      "Icon": "fa fa-building",
      "Color": "#17a2b8",
      "ParentCode": "CORE.TASKCATEGORY",
      "DisplayOrder": 2,
      "IsSystemPermission": true
    },

    {
      "Code": "CORE.ACTIVITYLOG",
      "NameEn": "Activity Logs",
      "NameFa": "لاگ فعالیت‌ها",
      "Description": "مشاهده و مدیریت لاگ فعالیت‌ها",
      "Icon": "fa fa-history",
      "Color": "#6c757d",
      "ParentCode": "CORE",
      "DisplayOrder": 8,
      "IsSystemPermission": true
    },
    {
      "Code": "CORE.ACTIVITYLOG.VIEW",
      "NameEn": "View Activity Logs",
      "NameFa": "مشاهده لاگ فعالیت‌ها",
      "Description": "مشاهده لیست فعالیت‌ها",
      "Icon": "fa fa-list",
      "Color": "#17a2b8",
      "ParentCode": "CORE.ACTIVITYLOG",
      "DisplayOrder": 1,
      "IsSystemPermission": true
    },
    {
      "Code": "CORE.ACTIVITYLOG.SEARCH",
      "NameEn": "Search Activity Logs",
      "NameFa": "جستجوی پیشرفته لاگ‌ها",
      "Description": "جستجوی پیشرفته در لاگ فعالیت‌ها",
      "Icon": "fa fa-search",
      "Color": "#ffc107",
      "ParentCode": "CORE.ACTIVITYLOG",
      "DisplayOrder": 2,
      "IsSystemPermission": true
    },
    {
      "Code": "CORE.ACTIVITYLOG.STATISTICS",
      "NameEn": "Activity Statistics",
      "NameFa": "آمار و گزارشات فعالیت",
      "Description": "مشاهده آمار و گزارشات فعالیت‌ها",
      "Icon": "fa fa-chart-line",
      "Color": "#28a745",
      "ParentCode": "CORE.ACTIVITYLOG",
      "DisplayOrder": 3,
      "IsSystemPermission": true
    },

    {
      "Code": "ORG",
      "NameEn": "Organization Management",
      "NameFa": "مدیریت سازمان‌ها",
      "Description": "مدیریت سازمان‌ها و شرکت‌ها",
      "Icon": "fa fa-building",
      "Color": "#007bff",
      "ParentCode": null,
      "DisplayOrder": 4,
      "IsSystemPermission": true
    },
    {
      "Code": "ORG.VIEW",
      "NameEn": "View Organizations",
      "NameFa": "مشاهده سازمان‌ها",
      "Description": "مشاهده لیست سازمان‌ها",
      "Icon": "fa fa-eye",
      "Color": "#17a2b8",
      "ParentCode": "ORG",
      "DisplayOrder": 1,
      "IsSystemPermission": true
    },
    {
      "Code": "ORG.CREATE",
      "NameEn": "Create Organization",
      "NameFa": "ایجاد سازمان",
      "Description": "ایجاد سازمان جدید",
      "Icon": "fa fa-plus-circle",
      "Color": "#28a745",
      "ParentCode": "ORG",
      "DisplayOrder": 2,
      "IsSystemPermission": true
    },
    {
      "Code": "ORG.EDIT",
      "NameEn": "Edit Organization",
      "NameFa": "ویرایش سازمان",
      "Description": "ویرایش اطلاعات سازمان",
      "Icon": "fa fa-edit",
      "Color": "#ffc107",
      "ParentCode": "ORG",
      "DisplayOrder": 3,
      "IsSystemPermission": true
    },
    {
      "Code": "ORG.DELETE",
      "NameEn": "Delete Organization",
      "NameFa": "حذف سازمان",
      "Description": "حذف سازمان از سیستم",
      "Icon": "fa fa-trash",
      "Color": "#dc3545",
      "ParentCode": "ORG",
      "DisplayOrder": 4,
      "IsSystemPermission": true
    },

    {
      "Code": "CONTACT",
      "NameEn": "Contact Management",
      "NameFa": "مدیریت افراد",
      "Description": "مدیریت افراد و مخاطبین",
      "Icon": "fa fa-users",
      "Color": "#28a745",
      "ParentCode": null,
      "DisplayOrder": 5,
      "IsSystemPermission": true
    },
    {
      "Code": "CONTACT.VIEW",
      "NameEn": "View Contacts",
      "NameFa": "مشاهده افراد",
      "Description": "مشاهده لیست افراد",
      "Icon": "fa fa-eye",
      "Color": "#17a2b8",
      "ParentCode": "CONTACT",
      "DisplayOrder": 1,
      "IsSystemPermission": true
    },
    {
      "Code": "CONTACT.CREATE",
      "NameEn": "Create Contact",
      "NameFa": "ایجاد فرد",
      "Description": "ایجاد فرد جدید",
      "Icon": "fa fa-user-plus",
      "Color": "#28a745",
      "ParentCode": "CONTACT",
      "DisplayOrder": 2,
      "IsSystemPermission": true
    },
    {
      "Code": "CONTACT.EDIT",
      "NameEn": "Edit Contact",
      "NameFa": "ویرایش فرد",
      "Description": "ویرایش اطلاعات فرد",
      "Icon": "fa fa-user-edit",
      "Color": "#ffc107",
      "ParentCode": "CONTACT",
      "DisplayOrder": 3,
      "IsSystemPermission": true
    },
    {
      "Code": "CONTACT.DELETE",
      "NameEn": "Delete Contact",
      "NameFa": "حذف فرد",
      "Description": "حذف فرد از سیستم",
      "Icon": "fa fa-user-times",
      "Color": "#dc3545",
      "ParentCode": "CONTACT",
      "DisplayOrder": 4,
      "IsSystemPermission": true
    },
    {
      "Code": "CONTACT.STATISTICS",
      "NameEn": "Contact Statistics",
      "NameFa": "آمار افراد",
      "Description": "مشاهده آمار و گزارشات افراد",
      "Icon": "fa fa-chart-pie",
      "Color": "#007bff",
      "ParentCode": "CONTACT",
      "DisplayOrder": 5,
      "IsSystemPermission": true
    },

    {
      "Code": "CONTRACT",
      "NameEn": "Contract Management",
      "NameFa": "مدیریت قراردادها",
      "Description": "مدیریت قراردادها",
      "Icon": "fa fa-file-contract",
      "Color": "#17a2b8",
      "ParentCode": null,
      "DisplayOrder": 6,
      "IsSystemPermission": true
    },
    {
      "Code": "CONTRACT.VIEW",
      "NameEn": "View Contracts",
      "NameFa": "مشاهده قراردادها",
      "Description": "مشاهده لیست قراردادها",
      "Icon": "fa fa-eye",
      "Color": "#17a2b8",
      "ParentCode": "CONTRACT",
      "DisplayOrder": 1,
      "IsSystemPermission": true
    },
    {
      "Code": "CONTRACT.CREATE",
      "NameEn": "Create Contract",
      "NameFa": "ایجاد قرارداد",
      "Description": "ایجاد قرارداد جدید",
      "Icon": "fa fa-plus-circle",
      "Color": "#28a745",
      "ParentCode": "CONTRACT",
      "DisplayOrder": 2,
      "IsSystemPermission": true
    },
    {
      "Code": "CONTRACT.EDIT",
      "NameEn": "Edit Contract",
      "NameFa": "ویرایش قرارداد",
      "Description": "ویرایش قرارداد",
      "Icon": "fa fa-edit",
      "Color": "#ffc107",
      "ParentCode": "CONTRACT",
      "DisplayOrder": 3,
      "IsSystemPermission": true
    },
    {
      "Code": "CONTRACT.DELETE",
      "NameEn": "Delete Contract",
      "NameFa": "حذف قرارداد",
      "Description": "حذف قرارداد",
      "Icon": "fa fa-trash",
      "Color": "#dc3545",
      "ParentCode": "CONTRACT",
      "DisplayOrder": 4,
      "IsSystemPermission": true
    },

    {
      "Code": "CRM",
      "NameEn": "CRM Management",
      "NameFa": "مدیریت CRM",
      "Description": "سیستم مدیریت ارتباط با مشتری",
      "Icon": "fa fa-chart-line",
      "Color": "#28a745",
      "ParentCode": null,
      "DisplayOrder": 7,
      "IsSystemPermission": true
    },
    {
      "Code": "CRM.DASHBOARD",
      "NameEn": "CRM Dashboard",
      "NameFa": "داشبورد CRM",
      "Description": "مشاهده داشبورد CRM",
      "Icon": "fa fa-tachometer-alt",
      "Color": "#007bff",
      "ParentCode": "CRM",
      "DisplayOrder": 1,
      "IsSystemPermission": true
    },
    {
      "Code": "CRM.LEAD",
      "NameEn": "Lead Management",
      "NameFa": "مدیریت سرنخ‌ها",
      "Description": "مدیریت سرنخ‌های فروش",
      "Icon": "fa fa-user-plus",
      "Color": "#ffc107",
      "ParentCode": "CRM",
      "DisplayOrder": 2,
      "IsSystemPermission": true
    },
    {
      "Code": "CRM.OPPORTUNITY",
      "NameEn": "Opportunity Management",
      "NameFa": "مدیریت فرصت‌ها",
      "Description": "مدیریت فرصت‌های فروش",
      "Icon": "fa fa-bullseye",
      "Color": "#dc3545",
      "ParentCode": "CRM",
      "DisplayOrder": 3,
      "IsSystemPermission": true
    },
    {
      "Code": "CRM.FOLLOWUP",
      "NameEn": "Customer Follow-up",
      "NameFa": "پیگیری مشتریان",
      "Description": "پیگیری و تماس با مشتریان",
      "Icon": "fa fa-phone",
      "Color": "#17a2b8",
      "ParentCode": "CRM",
      "DisplayOrder": 4,
      "IsSystemPermission": true
    },
    {
      "Code": "CRM.REPORTS",
      "NameEn": "Sales Reports",
      "NameFa": "گزارشات فروش",
      "Description": "مشاهده گزارشات فروش",
      "Icon": "fa fa-chart-bar",
      "Color": "#28a745",
      "ParentCode": "CRM",
      "DisplayOrder": 5,
      "IsSystemPermission": true
    },

    {
      "Code": "COMMUNICATION",
      "NameEn": "Communication Management",
      "NameFa": "مدیریت ارتباطات",
      "Description": "مدیریت سیستم‌های ارتباطی",
      "Icon": "fa fa-comments",
      "Color": "#17a2b8",
      "ParentCode": null,
      "DisplayOrder": 8,
      "IsSystemPermission": true
    },
    {
      "Code": "COMMUNICATION.SMS",
      "NameEn": "SMS Management",
      "NameFa": "مدیریت پیامک",
      "Description": "مدیریت سیستم پیامک",
      "Icon": "fa fa-sms",
      "Color": "#17a2b8",
      "ParentCode": "COMMUNICATION",
      "DisplayOrder": 1,
      "IsSystemPermission": true
    },
    {
      "Code": "COMMUNICATION.SMS.SEND",
      "NameEn": "Send SMS",
      "NameFa": "ارسال پیامک",
      "Description": "ارسال پیامک",
      "Icon": "fa fa-paper-plane",
      "Color": "#007bff",
      "ParentCode": "COMMUNICATION.SMS",
      "DisplayOrder": 1,
      "IsSystemPermission": true
    },
    {
      "Code": "COMMUNICATION.SMS.TEMPLATE",
      "NameEn": "SMS Templates",
      "NameFa": "قالب‌های پیامک",
      "Description": "مدیریت قالب‌های پیامک",
      "Icon": "fa fa-file-alt",
      "Color": "#17a2b8",
      "ParentCode": "COMMUNICATION.SMS",
      "DisplayOrder": 2,
      "IsSystemPermission": true
    },
    {
      "Code": "COMMUNICATION.SMS.TEMPLATE.VIEW",
      "NameEn": "View SMS Templates",
      "NameFa": "مشاهده قالب‌های پیامک",
      "Description": "مشاهده لیست قالب‌ها",
      "Icon": "fa fa-eye",
      "Color": "#17a2b8",
      "ParentCode": "COMMUNICATION.SMS.TEMPLATE",
      "DisplayOrder": 1,
      "IsSystemPermission": true
    },
    {
      "Code": "COMMUNICATION.SMS.TEMPLATE.CREATE",
      "NameEn": "Create SMS Template",
      "NameFa": "ایجاد قالب پیامک",
      "Description": "ایجاد قالب جدید",
      "Icon": "fa fa-plus-circle",
      "Color": "#28a745",
      "ParentCode": "COMMUNICATION.SMS.TEMPLATE",
      "DisplayOrder": 2,
      "IsSystemPermission": true
    },
    {
      "Code": "COMMUNICATION.SMS.PROVIDER",
      "NameEn": "SMS Providers",
      "NameFa": "خدمات‌دهندگان پیامک",
      "Description": "مدیریت تنظیمات ارائه‌دهندگان",
      "Icon": "fa fa-server",
      "Color": "#ffc107",
      "ParentCode": "COMMUNICATION.SMS",
      "DisplayOrder": 3,
      "IsSystemPermission": true
    },
    {
      "Code": "COMMUNICATION.EMAIL",
      "NameEn": "Email Management",
      "NameFa": "مدیریت ایمیل",
      "Description": "مدیریت سیستم ایمیل",
      "Icon": "fa fa-envelope",
      "Color": "#007bff",
      "ParentCode": "COMMUNICATION",
      "DisplayOrder": 2,
      "IsSystemPermission": true
    },
    {
      "Code": "COMMUNICATION.EMAIL.SEND",
      "NameEn": "Send Email",
      "NameFa": "ارسال ایمیل",
      "Description": "ارسال ایمیل",
      "Icon": "fa fa-paper-plane",
      "Color": "#007bff",
      "ParentCode": "COMMUNICATION.EMAIL",
      "DisplayOrder": 1,
      "IsSystemPermission": true
    },
    {
      "Code": "COMMUNICATION.EMAIL.TEMPLATE",
      "NameEn": "Email Templates",
      "NameFa": "قالب‌های ایمیل",
      "Description": "مدیریت قالب‌های ایمیل",
      "Icon": "fa fa-file-alt",
      "Color": "#17a2b8",
      "ParentCode": "COMMUNICATION.EMAIL",
      "DisplayOrder": 2,
      "IsSystemPermission": true
    },
    {
      "Code": "COMMUNICATION.EMAIL.TEMPLATE.VIEW",
      "NameEn": "View Email Templates",
      "NameFa": "مشاهده قالب‌های ایمیل",
      "Description": "مشاهده لیست قالب‌ها",
      "Icon": "fa fa-eye",
      "Color": "#17a2b8",
      "ParentCode": "COMMUNICATION.EMAIL.TEMPLATE",
      "DisplayOrder": 1,
      "IsSystemPermission": true
    },
    {
      "Code": "COMMUNICATION.EMAIL.TEMPLATE.CREATE",
      "NameEn": "Create Email Template",
      "NameFa": "ایجاد قالب ایمیل",
      "Description": "ایجاد قالب جدید",
      "Icon": "fa fa-plus-circle",
      "Color": "#28a745",
      "ParentCode": "COMMUNICATION.EMAIL.TEMPLATE",
      "DisplayOrder": 2,
      "IsSystemPermission": true
    },
    {
      "Code": "COMMUNICATION.EMAIL.SETTINGS",
      "NameEn": "Email Settings",
      "NameFa": "تنظیمات ایمیل",
      "Description": "تنظیمات سرور ایمیل",
      "Icon": "fa fa-cog",
      "Color": "#ffc107",
      "ParentCode": "COMMUNICATION.EMAIL",
      "DisplayOrder": 3,
      "IsSystemPermission": true
    },

    {
      "Code": "SETTINGS",
      "NameEn": "System Settings",
      "NameFa": "تنظیمات سیستم",
      "Description": "تنظیمات عمومی سیستم",
      "Icon": "fa fa-cogs",
      "Color": "#007bff",
      "ParentCode": null,
      "DisplayOrder": 9,
      "IsSystemPermission": true
    },
    {
      "Code": "SETTINGS.GENERAL",
      "NameEn": "General Settings",
      "NameFa": "تنظیمات عمومی",
      "Description": "تنظیمات عمومی سیستم",
      "Icon": "fa fa-sliders-h",
      "Color": "#6c757d",
      "ParentCode": "SETTINGS",
      "DisplayOrder": 1,
      "IsSystemPermission": true
    },
    {
      "Code": "SETTINGS.BACKUP",
      "NameEn": "Backup & Restore",
      "NameFa": "پشتیبان‌گیری و بازیابی",
      "Description": "مدیریت پشتیبان‌گیری",
      "Icon": "fa fa-database",
      "Color": "#28a745",
      "ParentCode": "SETTINGS",
      "DisplayOrder": 2,
      "IsSystemPermission": true
    }
  ]
}
